ONEWEB-0444             
1 51638U 22012S   23313.29245955  .00000821  00000+0  23145-2 0  9990
2 51638  87.8929 225.1177 0001695  64.8764 295.2539 13.10373337 84805
ONEWEB-0445             
1 51639U 22012T   23313.69536223 -.00000213  00000+0 -64725-3 0  9993
2 51639  87.8927 225.0242 0001897  84.6633 275.4711 13.10368257 86141
ONEWEB-0446             
1 51640U 22012U   23313.29085112  .00000741  00000+0  20853-2 0  9994
2 51640  87.8925 225.1088 0001626  77.7334 282.3975 13.10371493 84795
ONEWEB-0448             
1 51641U 22012V   23313.75387229  .00000732  00000+0  20610-2 0  9991
2 51641  87.8923 225.0187 0001782  64.9442 295.1870 13.10371413 86110
ONEWEB-0449             
1 51642U 22012W   23313.30060574  .00001926  00000+0  54812-2 0  9991
2 51642  87.8922 225.1126 0001987  72.3540 287.7805 13.10366901 84774
ONEWEB-0451             
1 51643U 22012X   23313.63960328  .00000732  00000+0  18516-2 0  9999
2 51643  87.9196 194.7996 0002283  64.7874 295.3494 13.17649756 89784
ONEWEB-0452             
1 51644U 22012Y   23313.18187783  .00000336  00000+0  83204-3 0  9993
2 51644  87.9246 194.9140 0002269  78.7325 281.4061 13.17646213 88436
ONEWEB-0455             
1 51645U 22012Z   23313.61934446  .00000573  00000+0  24812-3 0  9991
2 51645  87.5382 179.9199 0016683 348.8574  11.2244 14.22635445 90946
